{
"type": "FeatureCollection",
"name": "PUNTOS_BELLAVISTA2",
"crs": { "type": "name", "properties": { "name": "urn:ogc:def:crs:OGC:1.3:CRS84" } },
"features": [
{ "type": "Feature", "properties": { "nombre": "Cuadra 1", "nivel": 2 }, "geometry": { "type": "Point", "coordinates": [ -79.000652334529903, -2.893099445428613 ] } },
{ "type": "Feature", "properties": { "nombre": "Cuadra 2", "nivel": 3 }, "geometry": { "type": "Point", "coordinates": [ -79.001622679085415, -2.892898549011999 ] } },
{ "type": "Feature", "properties": { "nombre": "Cuadra 3", "nivel": 1 }, "geometry": { "type": "Point", "coordinates": [ -79.002607204232589, -2.892675608566154 ] } },
{ "type": "Feature", "properties": { "nombre": "Cuadra 4", "nivel": 2 }, "geometry": { "type": "Point", "coordinates": [ -79.003532515856236, -2.892457473572939 ] } },
{ "type": "Feature", "properties": { "nombre": "Cuadra 5", "nivel": 2 }, "geometry": { "type": "Point", "coordinates": [ -79.004456178206567, -2.892206348706787 ] } },
{ "type": "Feature", "properties": { "nombre": "Cuadra 6", "nivel": 2 }, "geometry": { "type": "Point", "coordinates": [ -79.005431534160806, -2.891943340042491 ] } },
{ "type": "Feature", "properties": { "nombre": "Cuadra 7", "nivel": 3 }, "geometry": { "type": "Point", "coordinates": [ -79.006435087797584, -2.891672526839558 ] } },
{ "type": "Feature", "properties": { "nombre": "Cuadra 8", "nivel": 2 }, "geometry": { "type": "Point", "coordinates": [ -79.007440002162866, -2.891409459184066 ] } },
{ "type": "Feature", "properties": { "nombre": "Cuadra 9", "nivel": 1 }, "geometry": { "type": "Point", "coordinates": [ -79.008445163014841, -2.891137852571342 ] } },
{ "type": "Feature", "properties": { "nombre": "Cuadra 10", "nivel": 2 }, "geometry": { "type": "Point", "coordinates": [ -79.009423566260452, -2.890926145406804 ] } },
{ "type": "Feature", "properties": { "nombre": "Cuadra 11", "nivel": 1 }, "geometry": { "type": "Point", "coordinates": [ -79.010460710997251, -2.890754818615743 ] } },
{ "type": "Feature", "properties": { "nombre": "Cuadra 12", "nivel": 2 }, "geometry": { "type": "Point", "coordinates": [ -79.011426117627934, -2.890292358064539 ] } },
{ "type": "Feature", "properties": { "nombre": "Cuadra 16", "nivel": 2 }, "geometry": { "type": "Point", "coordinates": [ -79.012295062065448, -2.889435222821299 ] } },
{ "type": "Feature", "properties": { "nombre": "Cuadra 18", "nivel": 2 }, "geometry": { "type": "Point", "coordinates": [ -79.010672017006158, -2.889071804114798 ] } },
{ "type": "Feature", "properties": { "nombre": "Cuadra 19", "nivel": 3 }, "geometry": { "type": "Point", "coordinates": [ -79.010379581402134, -2.889897527439152 ] } },
{ "type": "Feature", "properties": { "nombre": "Cuadra 20", "nivel": 4 }, "geometry": { "type": "Point", "coordinates": [ -79.010012545195977, -2.88910845090243 ] } },
{ "type": "Feature", "properties": { "nombre": "Cuadra 21", "nivel": 3 }, "geometry": { "type": "Point", "coordinates": [ -79.0092379121525, -2.888841246079315 ] } },
{ "type": "Feature", "properties": { "nombre": "Cuadra 22", "nivel": 2 }, "geometry": { "type": "Point", "coordinates": [ -79.00918184091617, -2.889370187992036 ] } },
{ "type": "Feature", "properties": { "nombre": "Cuadra 23", "nivel": 2 }, "geometry": { "type": "Point", "coordinates": [ -79.009317032246329, -2.89004510448491 ] } },
{ "type": "Feature", "properties": { "nombre": "Cuadra 24", "nivel": 2 }, "geometry": { "type": "Point", "coordinates": [ -79.008289686237475, -2.890279401845045 ] } },
{ "type": "Feature", "properties": { "nombre": "Cuadra 26", "nivel": 2 }, "geometry": { "type": "Point", "coordinates": [ -79.008084437833588, -2.888799119504828 ] } },
{ "type": "Feature", "properties": { "nombre": "Cuadra 27", "nivel": 1 }, "geometry": { "type": "Point", "coordinates": [ -79.006803333333337, -2.888296666666666 ] } },
{ "type": "Feature", "properties": { "nombre": "Cuadra 28", "nivel": 2 }, "geometry": { "type": "Point", "coordinates": [ -79.007096805627228, -2.888783015871939 ] } },
{ "type": "Feature", "properties": { "nombre": "Cuadra 31", "nivel": 1 }, "geometry": { "type": "Point", "coordinates": [ -79.006284558673116, -2.890756005856387 ] } },
{ "type": "Feature", "properties": { "nombre": "Cuadra 32", "nivel": 3 }, "geometry": { "type": "Point", "coordinates": [ -79.006175988642596, -2.890076187526671 ] } },
{ "type": "Feature", "properties": { "nombre": "Cuadra 33", "nivel": 1 }, "geometry": { "type": "Point", "coordinates": [ -79.006098414558082, -2.889563443279358 ] } },
{ "type": "Feature", "properties": { "nombre": "Cuadra 34", "nivel": 3 }, "geometry": { "type": "Point", "coordinates": [ -79.006248446312583, -2.888954175264298 ] } },
{ "type": "Feature", "properties": { "nombre": "Cuadra 35", "nivel": 2 }, "geometry": { "type": "Point", "coordinates": [ -79.005773452841098, -2.889035296142923 ] } },
{ "type": "Feature", "properties": { "nombre": "Cuadra 36", "nivel": 2 }, "geometry": { "type": "Point", "coordinates": [ -79.006163262786586, -2.888334313271604 ] } },
{ "type": "Feature", "properties": { "nombre": "Cuadra 37", "nivel": 3 }, "geometry": { "type": "Point", "coordinates": [ -79.005676423248886, -2.888418104818678 ] } },
{ "type": "Feature", "properties": { "nombre": "Cuadra 38", "nivel": 2 }, "geometry": { "type": "Point", "coordinates": [ -79.005119469716007, -2.888829899472229 ] } },
{ "type": "Feature", "properties": { "nombre": "Cuadra 39", "nivel": 2 }, "geometry": { "type": "Point", "coordinates": [ -79.005100765467674, -2.889790600240115 ] } },
{ "type": "Feature", "properties": { "nombre": "Cuadra 40", "nivel": 2 }, "geometry": { "type": "Point", "coordinates": [ -79.005152054493479, -2.890300455440296 ] } },
{ "type": "Feature", "properties": { "nombre": "Cuadra 41", "nivel": 2 }, "geometry": { "type": "Point", "coordinates": [ -79.005508921640867, -2.890920830537373 ] } },
{ "type": "Feature", "properties": { "nombre": "Cuadra 42", "nivel": 1 }, "geometry": { "type": "Point", "coordinates": [ -79.00500411192094, -2.8910363551003 ] } },
{ "type": "Feature", "properties": { "nombre": "Cuadra 43", "nivel": 2 }, "geometry": { "type": "Point", "coordinates": [ -79.004258852497287, -2.891212091230436 ] } },
{ "type": "Feature", "properties": { "nombre": "Cuadra 45", "nivel": 2 }, "geometry": { "type": "Point", "coordinates": [ -79.00239795052434, -2.891576107076019 ] } },
{ "type": "Feature", "properties": { "nombre": "Cuadra 46", "nivel": 2 }, "geometry": { "type": "Point", "coordinates": [ -79.001408298177793, -2.891781779955253 ] } },
{ "type": "Feature", "properties": { "nombre": "Cuadra 47", "nivel": 2 }, "geometry": { "type": "Point", "coordinates": [ -79.000441866701664, -2.892006050593873 ] } },
{ "type": "Feature", "properties": { "nombre": "Cuadra 48", "nivel": 2 }, "geometry": { "type": "Point", "coordinates": [ -79.000266676704953, -2.891073211083428 ] } },
{ "type": "Feature", "properties": { "nombre": "Cuadra 49", "nivel": 2 }, "geometry": { "type": "Point", "coordinates": [ -79.001165222672071, -2.890992685266679 ] } },
{ "type": "Feature", "properties": { "nombre": "Cuadra 50", "nivel": 3 }, "geometry": { "type": "Point", "coordinates": [ -79.00218608873665, -2.890415832498338 ] } },
{ "type": "Feature", "properties": { "nombre": "Cuadra 51", "nivel": 2 }, "geometry": { "type": "Point", "coordinates": [ -79.001993092675647, -2.889382529147981 ] } },
{ "type": "Feature", "properties": { "nombre": "Cuadra 53", "nivel": 2 }, "geometry": { "type": "Point", "coordinates": [ -79.000348850934458, -2.888166996151311 ] } },
{ "type": "Feature", "properties": { "nombre": "Cuadra 55", "nivel": 4 }, "geometry": { "type": "Point", "coordinates": [ -78.99955545773328, -2.888128181234757 ] } },
{ "type": "Feature", "properties": { "nombre": "Cuadra 58", "nivel": 1 }, "geometry": { "type": "Point", "coordinates": [ -79.000893298325195, -2.887080311976013 ] } },
{ "type": "Feature", "properties": { "nombre": "Cuadra 59", "nivel": 3 }, "geometry": { "type": "Point", "coordinates": [ -78.999914273869578, -2.887283630589869 ] } },
{ "type": "Feature", "properties": { "nombre": "Cuadra 60", "nivel": 2 }, "geometry": { "type": "Point", "coordinates": [ -79.00040462145617, -2.886447219404657 ] } },
{ "type": "Feature", "properties": { "nombre": "Cuadra 61", "nivel": 2 }, "geometry": { "type": "Point", "coordinates": [ -78.999644633470453, -2.886627570244142 ] } },
{ "type": "Feature", "properties": { "nombre": "Cuadra 62", "nivel": 2 }, "geometry": { "type": "Point", "coordinates": [ -78.999274948617199, -2.886004262505665 ] } },
{ "type": "Feature", "properties": { "nombre": "Cuadra 63", "nivel": 2 }, "geometry": { "type": "Point", "coordinates": [ -78.999823238218042, -2.885798826229949 ] } },
{ "type": "Feature", "properties": { "nombre": "Cuadra 64", "nivel": 4 }, "geometry": { "type": "Point", "coordinates": [ -79.000461839750969, -2.885514210468097 ] } },
{ "type": "Feature", "properties": { "nombre": "Cuadra 68", "nivel": 1 }, "geometry": { "type": "Point", "coordinates": [ -78.999263947527581, -2.884725357250188 ] } },
{ "type": "Feature", "properties": { "nombre": "Cuadra 70", "nivel": 3 }, "geometry": { "type": "Point", "coordinates": [ -79.000064195678817, -2.884494945775182 ] } },
{ "type": "Feature", "properties": { "nombre": "Cuadra 71", "nivel": 1 }, "geometry": { "type": "Point", "coordinates": [ -79.000613931262521, -2.88433536452964 ] } },
{ "type": "Feature", "properties": { "nombre": "Cuadra 72", "nivel": 2 }, "geometry": { "type": "Point", "coordinates": [ -79.001184929502529, -2.884501148977265 ] } },
{ "type": "Feature", "properties": { "nombre": "Cuadra 77", "nivel": 2 }, "geometry": { "type": "Point", "coordinates": [ -79.001423877936233, -2.883383453978908 ] } },
{ "type": "Feature", "properties": { "nombre": "Cuadra 78", "nivel": 1 }, "geometry": { "type": "Point", "coordinates": [ -79.001449689920079, -2.8826651946195 ] } },
{ "type": "Feature", "properties": { "nombre": "Cuadra 80", "nivel": 1 }, "geometry": { "type": "Point", "coordinates": [ -78.999810421182261, -2.882893052087248 ] } },
{ "type": "Feature", "properties": { "nombre": "Cuadra 82", "nivel": 3 }, "geometry": { "type": "Point", "coordinates": [ -78.999005863717869, -2.881894141063957 ] } },
{ "type": "Feature", "properties": { "nombre": "Cuadra 87", "nivel": 1 }, "geometry": { "type": "Point", "coordinates": [ -79.00265821158149, -2.881930988986405 ] } },
{ "type": "Feature", "properties": { "nombre": "Cuadra 90", "nivel": 3 }, "geometry": { "type": "Point", "coordinates": [ -79.004580299062894, -2.883169899379212 ] } },
{ "type": "Feature", "properties": { "nombre": "Cuadra 91", "nivel": 2 }, "geometry": { "type": "Point", "coordinates": [ -79.006003062102025, -2.883079810824061 ] } },
{ "type": "Feature", "properties": { "nombre": "Cuadra 92", "nivel": 3 }, "geometry": { "type": "Point", "coordinates": [ -79.00798872127173, -2.883365362844214 ] } },
{ "type": "Feature", "properties": { "nombre": "Cuadra 93", "nivel": 3 }, "geometry": { "type": "Point", "coordinates": [ -79.009147045451499, -2.883774442124167 ] } },
{ "type": "Feature", "properties": { "nombre": "Cuadra 94", "nivel": 1 }, "geometry": { "type": "Point", "coordinates": [ -79.010134217199862, -2.884221829554136 ] } },
{ "type": "Feature", "properties": { "nombre": "Cuadra 95", "nivel": 1 }, "geometry": { "type": "Point", "coordinates": [ -79.01110291042923, -2.884505975692494 ] } },
{ "type": "Feature", "properties": { "nombre": "Cuadra 96", "nivel": 2 }, "geometry": { "type": "Point", "coordinates": [ -79.01245575558157, -2.884799607097593 ] } },
{ "type": "Feature", "properties": { "nombre": "Cuadra 97", "nivel": 1 }, "geometry": { "type": "Point", "coordinates": [ -79.013255146138576, -2.884784985599548 ] } },
{ "type": "Feature", "properties": { "nombre": "Cuadra 98", "nivel": 2 }, "geometry": { "type": "Point", "coordinates": [ -79.014559168612678, -2.884482803122832 ] } },
{ "type": "Feature", "properties": { "nombre": "Cuadra 100", "nivel": 2 }, "geometry": { "type": "Point", "coordinates": [ -79.008779243953285, -2.885665136110584 ] } },
{ "type": "Feature", "properties": { "nombre": "Cuadra 101", "nivel": 1 }, "geometry": { "type": "Point", "coordinates": [ -79.00947210154068, -2.884967466599329 ] } },
{ "type": "Feature", "properties": { "nombre": "Cuadra 102", "nivel": 1 }, "geometry": { "type": "Point", "coordinates": [ -79.010186360578018, -2.885753534465718 ] } },
{ "type": "Feature", "properties": { "nombre": "Cuadra 103", "nivel": 1 }, "geometry": { "type": "Point", "coordinates": [ -79.010967482537282, -2.885566684432651 ] } },
{ "type": "Feature", "properties": { "nombre": "Cuadra 104", "nivel": 4 }, "geometry": { "type": "Point", "coordinates": [ -79.011801061294037, -2.885643935115769 ] } },
{ "type": "Feature", "properties": { "nombre": "Cuadra 105", "nivel": 2 }, "geometry": { "type": "Point", "coordinates": [ -79.012438837267183, -2.885456020119069 ] } },
{ "type": "Feature", "properties": { "nombre": "Cuadra 106", "nivel": 2 }, "geometry": { "type": "Point", "coordinates": [ -79.013433718971257, -2.885265774134531 ] } },
{ "type": "Feature", "properties": { "nombre": "Cuadra 107", "nivel": 2 }, "geometry": { "type": "Point", "coordinates": [ -79.014533063320798, -2.885347737506696 ] } },
{ "type": "Feature", "properties": { "nombre": "Cuadra 108", "nivel": 2 }, "geometry": { "type": "Point", "coordinates": [ -79.015342016590864, -2.885064282379284 ] } },
{ "type": "Feature", "properties": { "nombre": "Cuadra 109", "nivel": 2 }, "geometry": { "type": "Point", "coordinates": [ -79.01454461661227, -2.886793509132879 ] } },
{ "type": "Feature", "properties": { "nombre": "Cuadra 110", "nivel": 2 }, "geometry": { "type": "Point", "coordinates": [ -79.013127978733124, -2.887161795514253 ] } },
{ "type": "Feature", "properties": { "nombre": "Cuadra 111", "nivel": 3 }, "geometry": { "type": "Point", "coordinates": [ -79.011357548842483, -2.886528189660575 ] } },
{ "type": "Feature", "properties": { "nombre": "Cuadra 112", "nivel": 3 }, "geometry": { "type": "Point", "coordinates": [ -79.013032443328555, -2.888076789813179 ] } },
{ "type": "Feature", "properties": { "nombre": "Cuadra 113", "nivel": 2 }, "geometry": { "type": "Point", "coordinates": [ -79.011090359772027, -2.887056297827578 ] } },
{ "type": "Feature", "properties": { "nombre": "Cuadra 114", "nivel": 2 }, "geometry": { "type": "Point", "coordinates": [ -79.009731733467945, -2.886305544131509 ] } },
{ "type": "Feature", "properties": { "nombre": "Cuadra 115", "nivel": 2 }, "geometry": { "type": "Point", "coordinates": [ -79.010571025357635, -2.887578568562652 ] } },
{ "type": "Feature", "properties": { "nombre": "Cuadra 116", "nivel": 3 }, "geometry": { "type": "Point", "coordinates": [ -79.012527165088571, -2.888537246778849 ] } },
{ "type": "Feature", "properties": { "nombre": "Cuadra 117", "nivel": 3 }, "geometry": { "type": "Point", "coordinates": [ -79.014514262506069, -2.882805656670394 ] } },
{ "type": "Feature", "properties": { "nombre": "Cuadra 118", "nivel": 1 }, "geometry": { "type": "Point", "coordinates": [ -79.015277427686385, -2.882989916901325 ] } },
{ "type": "Feature", "properties": { "nombre": "Cuadra 119", "nivel": 2 }, "geometry": { "type": "Point", "coordinates": [ -79.016005515332552, -2.883368021084495 ] } },
{ "type": "Feature", "properties": { "nombre": "Cuadra 120", "nivel": 2 }, "geometry": { "type": "Point", "coordinates": [ -79.014385568532944, -2.883759672591481 ] } },
{ "type": "Feature", "properties": { "nombre": "Cuadra 123", "nivel": 2 }, "geometry": { "type": "Point", "coordinates": [ -79.009355, -2.887416666666667 ] } },
{ "type": "Feature", "properties": { "nombre": "Cuadra 124", "nivel": 2 }, "geometry": { "type": "Point", "coordinates": [ -79.00935661030843, -2.888158534540882 ] } },
{ "type": "Feature", "properties": { "nombre": "Cuadra 125", "nivel": 3 }, "geometry": { "type": "Point", "coordinates": [ -79.008160568726709, -2.888125513559124 ] } },
{ "type": "Feature", "properties": { "nombre": "Cuadra 126", "nivel": 3 }, "geometry": { "type": "Point", "coordinates": [ -79.008559094660967, -2.887128053930275 ] } },
{ "type": "Feature", "properties": { "nombre": "Cuadra 127", "nivel": 2 }, "geometry": { "type": "Point", "coordinates": [ -79.007538019208155, -2.885910676825808 ] } },
{ "type": "Feature", "properties": { "nombre": "Cuadra 128", "nivel": 2 }, "geometry": { "type": "Point", "coordinates": [ -79.006803842281158, -2.886222370859246 ] } },
{ "type": "Feature", "properties": { "nombre": "Cuadra 129", "nivel": 3 }, "geometry": { "type": "Point", "coordinates": [ -79.006492177810443, -2.886950629684057 ] } },
{ "type": "Feature", "properties": { "nombre": "Cuadra 130", "nivel": 3 }, "geometry": { "type": "Point", "coordinates": [ -79.00691415438061, -2.887596106592102 ] } },
{ "type": "Feature", "properties": { "nombre": "Cuadra 131", "nivel": 3 }, "geometry": { "type": "Point", "coordinates": [ -79.005906775113218, -2.887693174262728 ] } },
{ "type": "Feature", "properties": { "nombre": "Cuadra 132", "nivel": 2 }, "geometry": { "type": "Point", "coordinates": [ -79.005963419179622, -2.887039436474704 ] } },
{ "type": "Feature", "properties": { "nombre": "Cuadra 133", "nivel": 3 }, "geometry": { "type": "Point", "coordinates": [ -79.006087363516301, -2.88575382851482 ] } },
{ "type": "Feature", "properties": { "nombre": "Cuadra 134", "nivel": 4 }, "geometry": { "type": "Point", "coordinates": [ -79.00519703737163, -2.886095609510042 ] } },
{ "type": "Feature", "properties": { "nombre": "Cuadra 135", "nivel": 3 }, "geometry": { "type": "Point", "coordinates": [ -79.00525109882112, -2.886948540196416 ] } },
{ "type": "Feature", "properties": { "nombre": "Cuadra 136", "nivel": 3 }, "geometry": { "type": "Point", "coordinates": [ -79.005052998982961, -2.887708232138317 ] } },
{ "type": "Feature", "properties": { "nombre": "Cuadra 137", "nivel": 3 }, "geometry": { "type": "Point", "coordinates": [ -79.004043174276291, -2.887602664502008 ] } },
{ "type": "Feature", "properties": { "nombre": "Cuadra 138", "nivel": 3 }, "geometry": { "type": "Point", "coordinates": [ -79.004024537188286, -2.886692178481978 ] } },
{ "type": "Feature", "properties": { "nombre": "Cuadra 139", "nivel": 3 }, "geometry": { "type": "Point", "coordinates": [ -79.003475162381591, -2.886799783491205 ] } },
{ "type": "Feature", "properties": { "nombre": "Cuadra 140", "nivel": 3 }, "geometry": { "type": "Point", "coordinates": [ -79.00387526876365, -2.886230491028631 ] } },
{ "type": "Feature", "properties": { "nombre": "Cuadra 141", "nivel": 4 }, "geometry": { "type": "Point", "coordinates": [ -79.004307825329661, -2.885756120515921 ] } },
{ "type": "Feature", "properties": { "nombre": "Cuadra 142", "nivel": 4 }, "geometry": { "type": "Point", "coordinates": [ -79.003502647495338, -2.885830393983905 ] } },
{ "type": "Feature", "properties": { "nombre": "Cuadra 143", "nivel": 3 }, "geometry": { "type": "Point", "coordinates": [ -79.003983042222799, -2.885139677099319 ] } },
{ "type": "Feature", "properties": { "nombre": "Cuadra 144", "nivel": 2 }, "geometry": { "type": "Point", "coordinates": [ -79.002830386746297, -2.885038561660496 ] } },
{ "type": "Feature", "properties": { "nombre": "Cuadra 145", "nivel": 2 }, "geometry": { "type": "Point", "coordinates": [ -79.00274857795938, -2.886039315480581 ] } },
{ "type": "Feature", "properties": { "nombre": "Cuadra 146", "nivel": 1 }, "geometry": { "type": "Point", "coordinates": [ -79.002897518526169, -2.887949878734561 ] } },
{ "type": "Feature", "properties": { "nombre": "Cuadra 147", "nivel": 2 }, "geometry": { "type": "Point", "coordinates": [ -79.001652098661424, -2.885213082003175 ] } },
{ "type": "Feature", "properties": { "nombre": "Cuadra 148", "nivel": 3 }, "geometry": { "type": "Point", "coordinates": [ -79.001579822092566, -2.886142913830439 ] } },
{ "type": "Feature", "properties": { "nombre": "Cuadra 149", "nivel": 4 }, "geometry": { "type": "Point", "coordinates": [ -79.003622653409963, -2.889099857201943 ] } },
{ "type": "Feature", "properties": { "nombre": "Cuadra 150", "nivel": 2 }, "geometry": { "type": "Point", "coordinates": [ -79.00407357228633, -2.890153380556638 ] } },
{ "type": "Feature", "properties": { "nombre": "Cuadra 151", "nivel": 3 }, "geometry": { "type": "Point", "coordinates": [ -79.003412042831499, -2.890245221851754 ] } },
{ "type": "Feature", "properties": { "nombre": "Cuadra 152", "nivel": 4 }, "geometry": { "type": "Point", "coordinates": [ -79.002947709527888, -2.890304457525111 ] } },
{ "type": "Feature", "properties": { "nombre": "Cuadra 153", "nivel": 2 }, "geometry": { "type": "Point", "coordinates": [ -79.002865119527215, -2.883025016478503 ] } },
{ "type": "Feature", "properties": { "nombre": "Cuadra 154", "nivel": 2 }, "geometry": { "type": "Point", "coordinates": [ -79.002245614860072, -2.883803663312193 ] } },
{ "type": "Feature", "properties": { "nombre": "Cuadra 155", "nivel": 2 }, "geometry": { "type": "Point", "coordinates": [ -79.003153721294908, -2.884036818006059 ] } }
]
}
